NORAD_CAT_ID,OBJECT_NAME,OBJECT_TYPE,EPOCH,MEAN_MOTION,ECCENTRICITY,INCLINATION,RA_OF_ASC_NODE,ARG_OF_PERICENTER,MEAN_ANOMALY,BSTAR,MEAN_MOTION_DOT,MEAN_MOTION_DDOT,TLE_LINE0,TLE_LINE1,TLE_LINE2,SEMIMAJOR_AXIS,PERIOD,APOGEE,PERIGEE,DECAYED
54002.0,STARLINK-5109,PAYLOAD,2022-10-29 22:00:01,15.73152397,0.0002836999999999,53.2197,333.0051,13.3909,99.1519,0.00071141,0.00100227,0.0,0 STARLINK-5109,1 54002U 22125AQ  22302.91668981  .00100227  00000-0  71141-3 0  9999,2 54002  53.2197 333.0051 0002837  13.3909  99.1519 15.73152397  1301,6728.031,91.536,351.805,347.987,0.0
54002.0,STARLINK-5109,PAYLOAD,2022-10-30 00:00:00,15.73184774,0.0002828,53.2196,332.5924,14.4044,210.2907,0.00037573,0.00052412,0.0,0 STARLINK-5109,1 54002U 22125AQ  22303.00001157  .00052412  00000-0  37573-3 0  9999,2 54002  53.2196 332.5924 0002828  14.4044 210.2907 15.73184774  4163,6727.939,91.534,351.706,347.901,0.0
54002.0,STARLINK-5109,PAYLOAD,2022-10-30 14:00:01,15.73167032,0.0003151999999999,53.2193,329.7083,13.2988,277.0146,5.8027e-05,7.519e-05,0.0,0 STARLINK-5109,1 54002U 22125AQ  22303.58334491  .00007519  00000-0  58027-4 0  9998,2 54002  53.2193 329.7083 0003152  13.2988 277.0146 15.73167032  1306,6727.989000000001,91.535,351.975,347.7340000000001,0.0
54002.0,STARLINK-5109,PAYLOAD,2022-10-30 22:00:01,15.73116442,0.0002819999999999,53.2193,328.0568,12.5496,6.7438,0.00074965,0.00105552,0.0,0 STARLINK-5109,1 54002U 22125AQ  22303.91668981  .00105552  00000-0  74965-3 0  9993,2 54002  53.2193 328.0568 0002820  12.5496   6.7438 15.73116442  1303,6728.1330000000025,91.538,351.896,348.101,0.0
54002.0,STARLINK-5109,PAYLOAD,2022-10-31 14:00:01,15.73168251,0.0003089,53.2193,324.7604,7.7907,189.2266,0.00064166,0.00090296,0.0,0 STARLINK-5109,1 54002U 22125AQ  22304.58334491  .00090296  00000-0  64166-3 0  9993,2 54002  53.2193 324.7604 0003089   7.7907 189.2266 15.73168251  1309,6727.986,91.535,351.92900000000014,347.772,0.0
54002.0,STARLINK-5109,PAYLOAD,2022-10-31 20:00:01,15.73243844,0.0002913,53.2199,323.5216,8.2303,165.5452,-0.00027248,-0.00038768,0.0,0 STARLINK-5109,1 54002U 22125AQ  22304.83335648 -.00038768  00000-0 -27248-3 0  9994,2 54002  53.2199 323.5216 0002913   8.2303 165.5452 15.73243844  4457,6727.77,91.531,351.595,347.675,0.0
54002.0,STARLINK-5109,PAYLOAD,2022-10-31 22:00:01,15.73231048,0.0002877,53.2197,323.1089,8.5876,277.4352,-0.00018984,-0.00027221,0.0,0 STARLINK-5109,1 54002U 22125AQ  22304.91668981 -.00027221  00000-0 -18984-3 0  9991,2 54002  53.2197 323.1089 0002877   8.5876 277.4352 15.73231048  1302,6727.807,91.531,351.607,347.736,0.0
54002.0,STARLINK-5109,PAYLOAD,2022-11-01 12:00:00,15.73173967,0.0003269,53.2195,320.2248,12.6578,338.9567,0.00081224,0.00114834,0.0,0 STARLINK-5109,1 54002U 22125AQ  22305.50001157  .00114834  00000-0  81224-3 0  9995,2 54002  53.2195 320.2248 0003269  12.6578 338.9567 15.73173967  4552,6727.969,91.535,352.034,347.635,0.0
54002.0,STARLINK-5109,PAYLOAD,2022-11-01 14:00:01,15.73222153,0.0003241,53.2193,319.812,12.6949,91.1407,0.00025457,0.00035297,0.0,0 STARLINK-5109,1 54002U 22125AQ  22305.58334491  .00035297  00000-0  25457-3 0  9994,2 54002  53.2193 319.8120 0003241  12.6949  91.1407 15.73222153  1308,6727.831999999999,91.532,351.87800000000016,347.517,0.0
54002.0,STARLINK-5109,PAYLOAD,2022-11-01 20:00:01,15.73247912,0.000297,53.2194,318.5734,11.9497,68.6167,-0.00036498,-0.0005165,0.0,0 STARLINK-5109,1 54002U 22125AQ  22305.83334491 -.00051650  00000-0 -36498-3 0  9992,2 54002  53.2194 318.5734 0002970  11.9497  68.6167 15.73247912  4602,6727.759,91.53,351.622,347.625,0.0
54002.0,STARLINK-5109,PAYLOAD,2022-11-01 22:00:00,15.73223666,0.0002937,53.2192,318.1607,12.5038,180.3138,-0.00014822,-0.00021397,0.0,0 STARLINK-5109,1 54002U 22125AQ  22305.91667824 -.00021397  00000-0 -14822-3 0  9992,2 54002  53.2192 318.1607 0002937  12.5038 180.3138 15.73223666  1300,6727.828,91.532,351.6690000000001,347.717,0.0
54002.0,STARLINK-5109,PAYLOAD,2022-11-02 14:00:01,15.73121747,0.0003179,53.2181,314.8641,8.3189,2.3607,0.00043535,0.00060727,0.0,0 STARLINK-5109,1 54002U 22125AQ  22306.58334491  .00060727  00000-0  43535-3 0  9998,2 54002  53.2181 314.8641 0003179   8.3189   2.3607 15.73121747  1309,6728.118,91.538,352.122,347.844,0.0
54002.0,STARLINK-5109,PAYLOAD,2022-11-02 22:00:00,15.73146355,0.0002926,53.2194,313.2127,9.698,89.8622,0.00086505,0.00122299,0.0,0 STARLINK-5109,1 54002U 22125AQ  22306.91667824  .00122299  00000-0  86505-3 0  9991,2 54002  53.2194 313.2127 0002926   9.6980  89.8622 15.73146355  4770,6728.0480000000025,91.536,351.88199999999995,347.944,0.0
54002.0,STARLINK-5109,PAYLOAD,2022-11-03 14:00:01,15.73270995,0.0003198,53.2188,309.9155,8.5065,268.9716,-3.4954e-05,-5.543e-05,0.0,0 STARLINK-5109,1 54002U 22125AQ  22307.58334491 -.00005543  00000-0 -34954-4 0  9992,2 54002  53.2188 309.9155 0003198   8.5065 268.9716 15.73270995  1308,6727.693,91.529,351.709,347.406,0.0
54002.0,STARLINK-5109,PAYLOAD,2022-11-03 22:00:00,15.73265738,0.0002918999999999,53.2188,308.2642,10.4736,356.0329,-0.00012301,-0.00017903,0.0,0 STARLINK-5109,1 54002U 22125AQ  22307.91667824 -.00017903  00000-0 -12301-3 0  9992,2 54002  53.2188 308.2642 0002919  10.4736 356.0329 15.73265738  1306,6727.708000000001,91.529,351.537,347.6090000000001,0.0
54002.0,STARLINK-5109,PAYLOAD,2022-11-04 14:00:01,15.73209527,0.0003151,53.2185,304.9671,7.0649,177.3972,-0.00019821,-0.00028366,0.0,0 STARLINK-5109,1 54002U 22125AQ  22308.58334491 -.00028366  00000-0 -19821-3 0  9996,2 54002  53.2185 304.9671 0003151   7.0649 177.3972 15.73209527  5049,6727.868,91.533,351.853,347.61300000000006,0.0
54002.0,STARLINK-5109,PAYLOAD,2022-11-04 22:00:01,15.73162315,0.0002973,53.2189,303.3154,8.4056,265.038,-0.00055387,-0.00077538,0.0,0 STARLINK-5109,1 54002U 22125AQ  22308.91668981 -.00077538  00000-0 -55387-3 0  9999,2 54002  53.2189 303.3154 0002973   8.4056 265.0380 15.73162315  5096,6728.003000000002,91.535,351.86800000000005,347.867,0.0
54002.0,STARLINK-5109,PAYLOAD,2022-11-05 06:00:00,15.73179783,0.0003123999999999,53.2189,301.6679,10.1072,352.1908,-0.00073499,-0.0010247,0.0,0 STARLINK-5109,1 54002U 22125AQ  22309.25001157 -.00102470  00000-0 -73499-3 0  9991,2 54002  53.2189 301.6679 0003124  10.1072 352.1908 15.73179783  5143,6727.953,91.534,351.92,347.716,0.0
54002.0,STARLINK-5109,PAYLOAD,2022-11-05 12:00:00,15.73085785,0.0003245,53.2185,300.4313,7.066,331.8881,0.000563,0.00078764,0.0,0 STARLINK-5109,1 54002U 22125AQ  22309.50001157  .00078764  00000-0  56300-3 0  9997,2 54002  53.2185 300.4313 0003245   7.0660 331.8881 15.73085785  5189,6728.221,91.54,352.269,347.903,0.0
54002.0,STARLINK-5109,PAYLOAD,2022-11-05 14:00:01,15.73109052,0.0003173,53.2185,300.0183,7.4144,83.8031,0.00036716,0.0005103,0.0,0 STARLINK-5109,1 54002U 22125AQ  22309.58335648  .00051030  00000-0  36716-3 0  9996,2 54002  53.2185 300.0183 0003173   7.4144  83.8031 15.73109052  1306,6728.154,91.538,352.154,347.885,0.0
54002.0,STARLINK-5109,PAYLOAD,2022-11-05 22:00:01,15.7308773,0.0002951,53.2185,298.3674,10.9102,169.1618,0.0020283,0.00292791,0.0,0 STARLINK-5109,1 54002U 22125AQ  22309.91668981  .00292791  00000-0  20283-2 0  9994,2 54002  53.2185 298.3674 0002951  10.9102 169.1618 15.73087730  1303,6728.215,91.54,352.066,348.095,0.0
54002.0,STARLINK-5109,PAYLOAD,2022-11-06 06:00:00,15.73373204,0.0003087,53.2183,296.7201,12.1743,256.7188,-0.0010446,-0.00145838,0.0,0 STARLINK-5109,1 54002U 22125AQ  22310.25001157 -.00145838  00000-0 -10446-2 0  9990,2 54002  53.2183 296.7201 0003087  12.1743 256.7188 15.73373204  5308,6727.401,91.523,351.343,347.19,0.0
54002.0,STARLINK-5109,PAYLOAD,2022-11-06 14:00:01,15.73268507,0.0003109,53.2184,295.0698,9.6406,348.3258,-0.00096208,-0.00133952,0.0,0 STARLINK-5109,1 54002U 22125AQ  22310.58334491 -.00133952  00000-0 -96208-3 0  9991,2 54002  53.2184 295.0698 0003109   9.6406 348.3258 15.73268507  1304,6727.7,91.529,351.657,347.473,0.0
54002.0,STARLINK-5109,PAYLOAD,2022-11-06 22:00:00,15.73186666,0.0002965,53.2188,293.4185,15.8941,71.0265,-9.351e-05,-0.0001372,0.0,0 STARLINK-5109,1 54002U 22125AQ  22310.91667824 -.00013720  00000-0 -93510-4 0  9991,2 54002  53.2188 293.4185 0002965  15.8941  71.0265 15.73186666  5401,6727.933000000001,91.534,351.793,347.80300000000005,0.0
54002.0,STARLINK-5109,PAYLOAD,2022-11-07 14:00:01,15.73318705,0.0003028,53.2186,290.1211,9.3039,255.3707,-0.00052333,-0.0007382,0.0,0 STARLINK-5109,1 54002U 22125AQ  22311.58334491 -.00073820  00000-0 -52333-3 0  9990,2 54002  53.2186 290.1211 0003028   9.3039 255.3707 15.73318705  5511,6727.557,91.526,351.459,347.385,0.0
54002.0,STARLINK-5109,PAYLOAD,2022-11-07 22:00:00,15.73269559,0.0002831,53.2188,288.4702,11.1147,342.6022,-0.00051785,-0.00072905,0.0,0 STARLINK-5109,1 54002U 22125AQ  22311.91667824 -.00072905  00000-0 -51785-3 0  9999,2 54002  53.2188 288.4702 0002831  11.1147 342.6022 15.73269559  1305,6727.696999999999,91.529,351.466,347.657,0.0
54002.0,STARLINK-5109,PAYLOAD,2022-11-08 06:00:00,15.73245047,0.0003022,53.2186,286.8227,10.5236,72.2327,-0.00025405,-0.00036202,0.0,0 STARLINK-5109,1 54002U 22125AQ  22312.25001157 -.00036202  00000-0 -25405-3 0  9998,2 54002  53.2186 286.8227 0003022  10.5236  72.2327 15.73245047  5610,6727.767,91.531,351.665,347.599,0.0
54002.0,STARLINK-5109,PAYLOAD,2022-11-08 14:00:01,15.73234207,0.0002957,53.2187,285.1722,9.7106,161.9973,0.00030485,0.00042448,0.0,0 STARLINK-5109,1 54002U 22125AQ  22312.58334491  .00042448  00000-0  30485-3 0  9995,2 54002  53.2187 285.1722 0002957   9.7106 161.9973 15.73234207  1306,6727.7980000000025,91.531,351.652,347.673,0.0
54002.0,STARLINK-5109,PAYLOAD,2022-11-08 22:00:00,15.73235777,0.0002815,53.2191,283.5213,13.2853,247.4202,0.00093167,0.00132431,0.0,0 STARLINK-5109,1 54002U 22125AQ  22312.91667824  .00132431  00000-0  93167-3 0  9999,2 54002  53.2191 283.5213 0002815  13.2853 247.4202 15.73235777  5728,6727.793000000002,91.531,351.552,347.764,0.0
